NORAD_CAT_ID,OBJECT_NAME,OBJECT_TYPE,EPOCH,MEAN_MOTION,ECCENTRICITY,INCLINATION,RA_OF_ASC_NODE,ARG_OF_PERICENTER,MEAN_ANOMALY,BSTAR,MEAN_MOTION_DOT,MEAN_MOTION_DDOT,TLE_LINE0,TLE_LINE1,TLE_LINE2,SEMIMAJOR_AXIS,PERIOD,APOGEE,PERIGEE,DECAYED
52276.0,STARLINK-3778,PAYLOAD,2023-06-04 13:41:05,15.08835425,7.57e-05,53.218,319.2329,100.4797,259.6281,0.00012468,1.697e-05,0.0,0 STARLINK-3778,1 52276U 22041R   23155.57019926  .00001697  00000-0  12468-3 0  9993,2 52276  53.2180 319.2329 0000757 100.4797 259.6281 15.08835425 62023,6917.894,95.438,540.283,539.236,0.0
52276.0,STARLINK-3778,PAYLOAD,2023-06-04 18:27:14,15.08844872,9.34e-05,53.2179,318.3402,93.7084,266.4015,0.00015245,2.14e-05,0.0,0 STARLINK-3778,1 52276U 22041R   23155.76891353  .00002140  00000-0  15245-3 0  9996,2 52276  53.2179 318.3402 0000934  93.7084 266.4015 15.08844872 63278,6917.865,95.437,540.377,539.084,0.0
52276.0,STARLINK-3778,PAYLOAD,2023-06-05 03:59:33,15.08841234,9.74e-05,53.2172,316.5562,84.2693,275.841,9.804e-05,1.273e-05,0.0,0 STARLINK-3778,1 52276U 22041R   23156.16635731  .00001273  00000-0  98040-4 0  9998,2 52276  53.2172 316.5562 0000974  84.2693 275.8410 15.08841234 63332,6917.877,95.437,540.415,539.068,0.0
52276.0,STARLINK-3778,PAYLOAD,2023-06-05 19:53:24,15.08846,0.000108,53.2178,313.5829,81.7846,278.3269,0.00011896,1.606e-05,0.0,0 STARLINK-3778,1 52276U 22041R   23156.82875386  .00001606  00000-0  11896-3 0  9996,2 52276  53.2178 313.5829 0001080  81.7846 278.3269 15.08846000 62214,6917.862,95.437,540.474,538.98,0.0
52276.0,STARLINK-3778,PAYLOAD,2023-06-06 10:11:52,15.08835464,1.39e-05,53.2179,310.9103,87.8946,272.2062,8.1654e-05,1.012e-05,0.0,0 STARLINK-3778,1 52276U 22041R   23157.42491789  .00001012  00000-0  81654-4 0  9995,2 52276  53.2179 310.9103 0000139  87.8946 272.2062 15.08835464 63524,6917.894,95.438,539.855,539.663,0.0
52276.0,STARLINK-3778,PAYLOAD,2023-06-06 13:22:39,15.08839085,0.0001158,53.2177,310.3131,81.281,278.8313,1.8013e-06,-2.59e-06,0.0,0 STARLINK-3778,1 52276U 22041R   23157.55740103 -.00000259  00000-0  18013-5 0  9999,2 52276  53.2177 310.3131 0001158  81.2810 278.8313 15.08839085 62328,6917.883,95.438,540.549,538.947,0.0
52276.0,STARLINK-3778,PAYLOAD,2023-06-06 14:58:02,15.08839322,0.0001178,53.2179,310.0159,80.4195,279.693,3.7954e-06,-2.27e-06,0.0,0 STARLINK-3778,1 52276U 22041R   23157.62364102 -.00000227  00000-0  37954-5 0  9998,2 52276  53.2179 310.0159 0001178  80.4195 279.6930 15.08839322 62335,6917.882,95.438,540.562,538.933,0.0
52276.0,STARLINK-3778,PAYLOAD,2023-06-07 13:13:26,15.08839542,0.0001059,53.2177,305.8519,79.0987,281.0124,6.8226e-05,7.98e-06,0.0,0 STARLINK-3778,1 52276U 22041R   23158.55099854  .00000798  00000-0  68226-4 0  9997,2 52276  53.2177 305.8519 0001059  79.0987 281.0124 15.08839542 62477,6917.882,95.438,540.479,539.014,0.0
52276.0,STARLINK-3778,PAYLOAD,2023-06-07 16:24:12,15.08847078,9.86e-05,53.2179,305.2561,87.4976,272.6129,3.8889e-05,3.31e-06,0.0,0 STARLINK-3778,1 52276U 22041R   23158.68347423  .00000331  00000-0  38889-4 0  9994,2 52276  53.2179 305.2561 0000986  87.4976 272.6129 15.08847078 63711,6917.859,95.437,540.406,539.042,0.0
52276.0,STARLINK-3778,PAYLOAD,2023-06-07 19:34:58,15.08847894,0.0001032,53.2185,304.6611,93.665,266.446,4.8217e-05,4.8e-06,0.0,0 STARLINK-3778,1 52276U 22041R   23158.81595307  .00000480  00000-0  48217-4 0  9996,2 52276  53.2185 304.6611 0001032  93.6650 266.4460 15.08847894 62510,6917.856,95.437,540.435,539.007,0.0
52276.0,STARLINK-3778,PAYLOAD,2023-06-08 13:04:13,15.08836351,0.0001066,53.2169,301.3913,80.6724,279.4389,6.7815e-05,7.92e-06,0.0,0 STARLINK-3778,1 52276U 22041R   23159.54460119  .00000792  00000-0  67815-4 0  9990,2 52276  53.2169 301.3913 0001066  80.6724 279.4389 15.08836351 62628,6917.892,95.438,540.494,539.019,0.0
52276.0,STARLINK-3778,PAYLOAD,2023-06-08 19:25:45,15.08845386,9.31e-05,53.2175,300.2001,85.11,274.9998,8.4845e-05,1.063e-05,0.0,0 STARLINK-3778,1 52276U 22041R   23159.80955478  .00001063  00000-0  84845-4 0  9990,2 52276  53.2175 300.2001 0000931  85.1100 274.9998 15.08845386 63882,6917.864,95.437,540.373,539.085,0.0
52276.0,STARLINK-3778,PAYLOAD,2023-06-09 09:44:14,15.08836195,0.0001119,53.2167,297.5235,92.1916,267.9204,4.8449e-05,4.83e-06,0.0,0 STARLINK-3778,1 52276U 22041R   23160.40572257  .00000483  00000-0  48449-4 0  9993,2 52276  53.2167 297.5235 0001119  92.1916 267.9204 15.08836195 63972,6917.892,95.438,540.531,538.983,0.0
52276.0,STARLINK-3778,PAYLOAD,2023-06-09 16:05:46,15.08839604,0.0001206,53.2165,296.3349,92.304,267.809,7.2378e-05,8.64e-06,0.0,0 STARLINK-3778,1 52276U 22041R   23160.67068019  .00000864  00000-0  72378-4 0  9999,2 52276  53.2165 296.3349 0001206  92.3040 267.8090 15.08839604 62799,6917.882,95.438,540.581,538.912,0.0
52276.0,STARLINK-3778,PAYLOAD,2023-06-10 11:10:24,15.08840296,9.6e-05,53.2161,292.7675,98.1623,261.9478,5.1889e-05,5.38e-06,0.0,0 STARLINK-3778,1 52276U 22041R   23161.46556224  .00000538  00000-0  51889-4 0  9999,2 52276  53.2161 292.7675 0000960  98.1623 261.9478 15.08840296 62912,6917.879,95.438,540.409,539.08,0.0
52276.0,STARLINK-3778,PAYLOAD,2023-06-10 17:31:58,15.08787036,0.000131,53.2169,291.5787,93.6437,266.4705,0.00096328,0.00015054,0.0,0 STARLINK-3778,1 52276U 22041R   23161.73053424  .00015054  00000-0  96328-3 0  9998,2 52276  53.2169 291.5787 0001310  93.6437 266.4705 15.08787036 64179,6918.042,95.441,540.814,539.001,0.0
52276.0,STARLINK-3778,PAYLOAD,2023-06-11 01:28:52,15.0884433,9.65e-05,53.2174,290.0921,87.2902,272.8201,6.4122e-05,7.33e-06,0.0,0 STARLINK-3778,1 52276U 22041R   23162.06171914  .00000733  00000-0  64122-4 0  9996,2 52276  53.2174 290.0921 0000965  87.2902 272.8201 15.08844330 64229,6917.867,95.437,540.4,539.065,0.0
52276.0,STARLINK-3778,PAYLOAD,2023-06-11 11:01:11,15.08836822,0.0001225,53.2184,288.3087,86.3779,273.7353,6.7512e-05,7.87e-06,0.0,0 STARLINK-3778,1 52276U 22041R   23162.45916620  .00000787  00000-0  67512-4 0  9995,2 52276  53.2184 288.3087 0001225  86.3779 273.7353 15.08836822 63061,6917.89,95.438,540.603,538.908,0.0
52276.0,STARLINK-3778,PAYLOAD,2023-06-11 17:22:44,15.0883734,0.0001207,53.218,287.1193,84.089,276.024,6.5234e-05,7.5e-06,0.0,0 STARLINK-3778,1 52276U 22041R   23162.72412653  .00000750  00000-0  65234-4 0  9991,2 52276  53.2180 287.1193 0001207  84.0890 276.0240 15.08837340 63103,6917.889,95.438,540.589,538.919,0.0
52276.0,STARLINK-3778,PAYLOAD,2023-06-12 01:19:40,15.08837879,0.0001135,53.218,285.632,85.0936,275.0186,7.4886e-05,9.04e-06,0.0,0 STARLINK-3778,1 52276U 22041R   23163.05532613  .00000904  00000-0  74886-4 0  9991,2 52276  53.2180 285.6320 0001135  85.0936 275.0186 15.08837879 63150,6917.887,95.438,540.537,538.967,0.0
52276.0,STARLINK-3778,PAYLOAD,2023-06-13 01:10:26,15.08845208,0.0001091,53.2181,281.1718,92.2761,267.8356,4.1121e-05,3.67e-06,0.0,0 STARLINK-3778,1 52276U 22041R   23164.04892178  .00000367  00000-0  41121-4 0  9995,2 52276  53.2181 281.1718 0001091  92.2761 267.8356 15.08845208 64525,6917.864,95.437,540.484,538.975,0.0
52276.0,STARLINK-3778,PAYLOAD,2023-06-13 10:42:46,15.08832214,0.0001176,53.2171,279.3878,81.72,278.3926,3.9453e-05,3.4e-06,0.0,0 STARLINK-3778,1 52276U 22041R   23164.44637103  .00000340  00000-0  39453-4 0  9990,2 52276  53.2171 279.3878 0001176  81.7200 278.3926 15.08832214 64584,6917.904,95.438,540.583,538.956,0.0
52276.0,STARLINK-3778,PAYLOAD,2023-06-14 01:01:13,15.08844309,9.7e-05,53.2172,276.71,87.305,272.8053,5.9805e-05,6.64e-06,0.0,0 STARLINK-3778,1 52276U 22041R   23165.04252234  .00000664  00000-0  59805-4 0  9997,2 52276  53.2172 276.7100 0000970  87.3050 272.8053 15.08844309 64678,6917.867,95.437,540.403,539.061,0.0
52276.0,STARLINK-3778,PAYLOAD,2023-06-14 07:22:46,15.08844545,0.0001097,53.2169,275.5208,85.0372,275.0745,1.1206e-05,-1.09e-06,0.0,0 STARLINK-3778,1 52276U 22041R   23165.30748412 -.00000109  00000-0  11206-4 0  9992,2 52276  53.2169 275.5208 0001097  85.0372 275.0745 15.08844545 63497,6917.866,95.437,540.49,538.973,0.0
52276.0,STARLINK-3778,PAYLOAD,2023-06-14 16:55:05,15.0884894,9.9e-05,53.2163,273.7369,99.9623,260.1481,3.6226e-05,2.89e-06,0.0,0 STARLINK-3778,1 52276U 22041R   23165.70491956  .00000289  00000-0  36226-4 0  9991,2 52276  53.2163 273.7369 0000990  99.9623 260.1481 15.08848940 63555,6917.853,95.437,540.403,539.033,0.0
52276.0,STARLINK-3778,PAYLOAD,2023-06-15 10:24:19,15.08866777,0.0001158,53.2161,270.4653,81.9907,278.1216,-0.00040282,-6.698e-05,0.0,0 STARLINK-3778,1 52276U 22041R   23166.43355770 -.00006698  00000-0 -40282-3 0  9993,2 52276  53.2161 270.4653 0001158  81.9907 278.1216 15.08866777 64886,6917.799,95.436,540.465,538.862,0.0
52276.0,STARLINK-3778,PAYLOAD,2023-06-15 13:35:06,15.08839775,0.0001096,53.2165,269.8702,97.1283,262.9834,5.625e-05,6.08e-06,0.0,0 STARLINK-3778,1 52276U 22041R   23166.56604555  .00000608  00000-0  56250-4 0  9991,2 52276  53.2165 269.8702 0001096  97.1283 262.9834 15.08839775 63686,6917.881,95.438,540.504,538.988,0.0
52276.0,STARLINK-3778,PAYLOAD,2023-06-15 16:45:52,15.08841801,0.0001103,53.2165,269.275,101.113,258.9986,6.5039e-05,7.47e-06,0.0,0 STARLINK-3778,1 52276U 22041R   23166.69852368  .00000747  00000-0  65039-4 0  9991,2 52276  53.2165 269.2750 0001103 101.1130 258.9986 15.08841801 64923,6917.875,95.437,540.503,538.977,0.0
52276.0,STARLINK-3778,PAYLOAD,2023-06-16 10:15:06,15.08864973,0.000173,53.2166,266.0031,98.4195,261.6994,-0.0001543,-2.745e-05,0.0,0 STARLINK-3778,1 52276U 22041R   23167.42715402 -.00002745  00000-0 -15430-3 0  9991,2 52276  53.2166 266.0031 0001730  98.4195 261.6994 15.08864973 65034,6917.804,95.436,540.866,538.472,0.0
52276.0,STARLINK-3778,PAYLOAD,2023-06-16 13:25:52,15.08852931,0.0001168,53.2169,265.4119,89.4136,270.699,0.00012576,1.715e-05,0.0,0 STARLINK-3778,1 52276U 22041R   23167.55963464  .00001715  00000-0  12576-3 0  9990,2 52276  53.2169 265.4119 0001168  89.4136 270.6990 15.08852931 63830,6917.841,95.437,540.514,538.898,0.0
